{
  "norad_id": 62049,
  "name": "STARLINK-32473",
  "history": [
    {
      "epoch": "2026-03-28T10:44:19.773312",
      "apogee_km": 484.08341306384955,
      "perigee_km": 482.046459433016,
      "latitude_deg": 40.35993596773602,
      "longitude_deg": 67.85530368005857,
      "semi_major_axis_km": 6861.2019362484325,
      "eccentricity": 0.00014844,
      "inclination_deg": 43.0003,
      "raan_deg": 150.4492,
      "arg_perigee_deg": 264.7638,
      "mean_anomaly_deg": 95.3044,
      "mean_motion_rev_day": 15.2757471
    },
    {
      "epoch": "2026-03-29T04:00:03.705120",
      "apogee_km": 484.45053380388345,
      "perigee_km": 481.5565047328573,
      "latitude_deg": 6.863112910938804,
      "longitude_deg": 136.9041168000549,
      "semi_major_axis_km": 6861.140519268371,
      "eccentricity": 0.0002109,
      "inclination_deg": 42.9968,
      "raan_deg": 146.3838,
      "arg_perigee_deg": 279.2147,
      "mean_anomaly_deg": 80.8466,
      "mean_motion_rev_day": 15.27595221
    }
  ]
}